{"type":"Topology","objects":{"places":{"type":"GeometryCollection","geometries":[{"type":"Point","coordinates":[114.1501,22.2759],"properties":{"name":"Victoria Peak"}},{"type":"Point","coordinates":[114.16,22.2935],"properties":{"name":"Star Ferry Pier"}},{"type":"Point","coordinates":[113.9049,22.2539],"properties":{"name":"Tian Tan Buddha"}},{"type":"Point","coordinates":[114.1507,22.2853],"properties":{"name":"Man Mo Temple"}},{"type":"Point","coordinates":[114.1777,22.3015],"properties":{"name":"Hong Kong Museum of History"}},{"type":"Point","coordinates":[114.1929,22.3429],"properties":{"name":"Wong Tai Sin Temple"}},{"type":"Point","coordinates":[113.8635,22.2526],"properties":{"name":"Tai O"}},{"type":"Point","coordinates":[114.245,22.2438],"properties":{"name":"Dragon's Back"}},{"type":"Point","coordinates":[114.203,22.3391],"properties":{"name":"Nan Lian Garden"}},{"type":"Point","coordinates":[114.154,22.2815],"properties":{"name":"Tai Kwun"}}]}},"arcs":[],"bbox":[113.8635,22.2438,114.245,22.3429]}